H1 CPF 01  gfz 2022 01 26 01  5261 terrasarx 
H2 0702601  6201 31698    2022 01 26 00 59 42 2022 01 31 00 00 42   120 1 1  0 0 0
H9
10 0 59607  29502.000000  0   -1811603.032   2132869.501   6284030.422
10 0 59607  29622.000000  0   -1048899.156   1710164.822   6579261.374
10 0 59607  29742.000000  0    -275669.706   1244177.845   6758871.472
10 0 59607  29862.000000  0     493906.109    742983.193   6819725.793
10 0 59607  29982.000000  0    1245865.341    215511.446   6760761.993
10 0 59607  30102.000000  0    1966713.324   -328609.221   6583007.694
10 0 59607  30222.000000  0    2643665.000   -879228.163   6289564.557
10 0 59607  30342.000000  0    3264872.319  -1425860.675   5885558.308
10 0 59607  30462.000000  0    3819634.879  -1957887.193   5378054.942
10 0 59607  30582.000000  0    4298588.304  -2464759.726   4775942.254
10 0 59607  30702.000000  0    4693867.695  -2936211.826   4089780.533
10 0 59607  30822.000000  0    4999244.112  -3362469.208   3331622.109
10 0 59607  30942.000000  0    5210230.049  -3734454.711   2514800.506
10 0 59607  31062.000000  0    5324149.467  -4043982.632   1653693.565
10 0 59607  31182.000000  0    5340171.358  -4283938.921    763466.308
10 0 59607  31302.000000  0    5259306.731  -4448441.534   -140202.813
10 0 59607  31422.000000  0    5084368.244  -4532977.614  -1041406.366
10 0 59607  31542.000000  0    4819892.929  -4534512.642  -1924297.178
10 0 59607  31662.000000  0    4472030.313  -4451569.373  -2773375.048
10 0 59607  31782.000000  0    4048399.318  -4284274.802  -3573764.369
10 0 59607  31902.000000  0    3557918.117  -4034374.373  -4311477.363
10 0 59607  32022.000000  0    3010611.522  -3705213.479  -4973657.110
10 0 59607  32142.000000  0    2417400.743  -3301687.865  -5548796.149
10 0 59607  32262.000000  0    1789882.148  -2830164.910  -6026926.602
10 0 59607  32382.000000  0    1140100.144  -2298379.166  -6399782.716
10 0 59607  32502.000000  0     480316.103  -1715301.777  -6660934.308
10 0 59607  32622.000000  0    -177220.841  -1090986.645  -6805886.798
10 0 59607  32742.000000  0    -820496.399   -436397.930  -6832149.117
10 0 59607  32862.000000  0   -1437944.994    236778.738  -6739271.406
10 0 59607  32982.000000  0   -2018653.098    916339.640  -6528851.276
10 0 59607  33102.000000  0   -2552547.543   1589778.542  -6204509.226
10 0 59607  33222.000000  0   -3030567.223   2244511.133  -5771833.283
10 0 59607  33342.000000  0   -3444816.926   2868106.284  -5238293.631
10 0 59607  33462.000000  0   -3788701.098   3448521.077  -4613125.619
10 0 59607  33582.000000  0   -4057034.178   3974334.495  -3907180.148
10 0 59607  33702.000000  0   -4246123.237   4434974.879  -3132744.061
10 0 59607  33822.000000  0   -4353822.512   4820937.135  -2303333.941
10 0 59607  33942.000000  0   -4379559.161   5123983.837  -1433464.073
10 0 59607  34062.000000  0   -4324328.445   5337326.400   -538392.884
10 0 59607  34182.000000  0   -4190656.383   5455780.567    366149.997
10 0 59607  34302.000000  0   -3982530.617   5475889.774   1264246.626
10 0 59607  34422.000000  0   -3705302.122   5396016.238   2140080.528
10 0 59607  34542.000000  0   -3365558.256   5216393.111   2978225.760
10 0 59607  34662.000000  0   -2970970.082   4939138.180   3763926.111
10 0 59607  34782.000000  0   -2530120.887   4568230.455   4483359.464
10 0 59607  34902.000000  0   -2052318.986   4109449.511   5123883.771
10 0 59607  35022.000000  0   -1547399.898   3570278.950   5674259.194
10 0 59607  35142.000000  0   -1025521.847   2959776.740   6124842.224
10 0 59607  35262.000000  0    -496960.320   2288415.804   6467748.807
10 0 59607  35382.000000  0      28093.608   1567899.724   6696985.370
10 0 59607  35502.000000  0     539729.190    810955.846   6808548.625
10 0 59607  35622.000000  0    1028502.405     31109.234   6800490.143
10 0 59607  35742.000000  0    1485609.098   -757557.829   6672948.637
10 0 59607  35862.000000  0    1903043.109  -1540659.758   6428148.413
10 0 59607  35982.000000  0    2273736.742  -2303769.164   6070363.379
10 0 59607  36102.000000  0    2591681.947  -3032683.554   5605847.849
10 0 59607  36222.000000  0    2852029.786  -3713691.934   5042732.581
10 0 59607  36342.000000  0    3051165.831  -4333836.218   4390888.239
10 0 59607  36462.000000  0    3186761.623  -4881163.919   3661757.543
10 0 59607  36582.000000  0    3257799.470  -5344965.310   2868156.350
10 0 59607  36702.000000  0    3264570.513  -5715990.444   2024048.327
10 0 59607  36822.000000  0    3208644.664  -5986640.165   1144295.782
10 0 59607  36942.000000  0    3092814.370  -6151125.312    244392.604
10 0 59607  37062.000000  0    2921013.972  -6205592.296   -659815.059
10 0 59607  37182.000000  0    2698214.552  -6148210.824  -1552418.210
10 0 59607  37302.000000  0    2430297.110  -5979218.020  -2417733.355
10 0 59607  37422.000000  0    2123909.490  -5700922.956  -3240584.841
10 0 59607  37542.000000  0    1786307.793  -5317668.909  -4006576.566
10 0 59607  37662.000000  0    1425189.061  -4835753.667  -4702343.417
10 0 59607  37782.000000  0    1048520.569  -4263314.130  -5315779.758
10 0 59607  37902.000000  0     664368.273  -3610178.627  -5836242.801
10 0 59607  38022.000000  0     280728.000  -2887689.257  -6254727.505
10 0 59607  38142.000000  0     -94636.874  -2108499.135  -6564010.873
10 0 59607  38262.000000  0    -454348.141  -1286348.604  -6758765.461
10 0 59607  38382.000000  0    -791553.039   -435824.249  -6835642.062
10 0 59607  38502.000000  0   -1100050.539    427896.239  -6793320.645
10 0 59607  38622.000000  0   -1374402.512   1289308.123  -6632529.544
10 0 59607  38742.000000  0   -1610027.312   2132850.950  -6356034.129
10 0 59607  38862.000000  0   -1803274.909   2943182.526  -5968595.018
10 0 59607  38982.000000  0   -1951483.631   3705454.501  -5476895.725
10 0 59607  39102.000000  0   -2053016.221   4405583.408  -4889438.186
10 0 59607  39222.000000  0   -2107275.760   5030514.229  -4216407.387
10 0 59607  39342.000000  0   -2114699.965   5568470.030  -3469503.978
10 0 59607  39462.000000  0   -2076733.300   6009181.596  -2661748.615
10 0 59607  39582.000000  0   -1995777.642   6344093.853  -1807260.857
10 0 59607  39702.000000  0   -1875122.941   6566543.178   -921013.231
10 0 59607  39822.000000  0   -1718858.396   6671899.216    -18567.319
10 0 59607  39942.000000  0   -1531766.208   6657670.873    884204.092
10 0 59607  40062.000000  0   -1319200.298   6523569.039   1771407.266
10 0 59607  40182.000000  0   -1086952.324   6271520.520   2627417.843
10 0 59607  40302.000000  0    -841109.669   5905638.171   3437163.128
10 0 59607  40422.000000  0    -587909.285   5432149.074   4186392.824
10 0 59607  40542.000000  0    -333591.173   4859281.956   4861935.168
10 0 59607  40662.000000  0     -84252.895   4197111.280   5451930.361
10 0 59607  40782.000000  0     154289.113   3457371.183   5946033.791
10 0 59607  40902.000000  0     376628.092   2653239.610   6335594.619
10 0 59607  41022.000000  0     577883.920   1799096.427   6613800.862
10 0 59607  41142.000000  0     753806.008    910262.127   6775792.723
10 0 59607  41262.000000  0     900860.046      2720.937   6818741.505
10 0 59607  41382.000000  0    1016297.464   -907165.320   6741896.141
10 0 59607  41502.000000  0    1098206.406  -1802951.930   6546596.562
10 0 59607  41622.000000  0    1145543.497  -2668408.082   6236252.179
10 0 59607  41742.000000  0    1158145.871  -3487812.429   5816286.364
10 0 59607  41862.000000  0    1136722.472  -4246241.032   5294045.392
10 0 59607  41982.000000  0    1082826.953  -4929841.713   4678675.508
10 0 59607  42102.000000  0     998811.451  -5526093.435   3980969.853
10 0 59607  42222.000000  0     887761.835  -6024045.875   3213183.364
10 0 59607  42342.000000  0     753415.897  -6414530.607   2388818.072
10 0 59607  42462.000000  0     600065.230  -6690339.307   1522384.193
10 0 59607  42582.000000  0     432444.092  -6846365.319    629141.119
10 0 59607  42702.000000  0     255607.660  -6879706.287   -275178.682
10 0 59607  42822.000000  0      74801.945  -6789719.739  -1174657.708
10 0 59607  42942.000000  0    -104669.379  -6578031.375  -2053482.757
10 0 59607  43062.000000  0    -277578.302  -6248498.961  -2896229.531
10 0 59607  43182.000000  0    -438903.073  -5807133.087  -3688138.335
10 0 59607  43302.000000  0    -583952.952  -5261975.659  -4415375.122
10 0 59607  43422.000000  0    -708483.630  -4622939.701  -5065270.914
10 0 59607  43542.000000  0    -808800.851  -3901617.274  -5626536.202
10 0 59607  43662.000000  0    -881849.932  -3111059.457  -6089448.296
10 0 59607  43782.000000  0    -925289.533  -2265533.456  -6446009.200
10 0 59607  43902.000000  0    -937548.670  -1380261.853  -6690072.194
10 0 59607  44022.000000  0    -917866.359   -471149.804  -6817437.210
10 0 59607  44142.000000  0    -866313.061    445496.856  -6825915.397
10 0 59607  44262.000000  0    -783793.227   1353257.237  -6715361.449
10 0 59607  44382.000000  0    -672029.873   2235881.832  -6487675.790
10 0 59607  44502.000000  0    -533531.267   3077576.116  -6146775.992
10 0 59607  44622.000000  0    -371539.284   3863279.390  -5698537.930
10 0 59607  44742.000000  0    -189960.294   4578933.468  -5150704.143
10 0 59607  44862.000000  0       6719.837   5211736.587  -4512761.751
10 0 59607  44982.000000  0     213535.407   5750379.632  -3795789.086
10 0 59607  45102.000000  0     425153.843   6185258.021  -3012271.959
10 0 59607  45222.000000  0     635999.620   6508654.660  -2175892.651
10 0 59607  45342.000000  0     840386.595   6714890.053  -1301293.730
10 0 59607  45462.000000  0    1032655.676   6800434.208   -403820.181
10 0 59607  45582.000000  0    1207314.525   6763976.821    500754.878
10 0 59607  45702.000000  0    1359175.421   6606452.261   1396515.031
10 0 59607  45822.000000  0    1483486.801   6331019.808   2267688.394
10 0 59607  45942.000000  0    1576056.030   5943000.366   3098933.343
99
